{"fetched_at":"2026-03-29T16:36:15Z","count":15609,"tles":[{"name":"STARLINK-31157","line1":"1 58735U 24005H   26087.56728852  .00002451  00000+0  98566-4 0  9994","line2":"2 58735  43.0032 112.8851 0001157 273.6674  86.4046 15.27572948123337","category":"Starlink"}]}