{
  "norad_id": 58735,
  "name": "STARLINK-31157",
  "history": [
    {
      "epoch": "2026-03-28T13:36:53.728128",
      "apogee_km": 483.8640540203014,
      "perigee_km": 482.2763706713631,
      "latitude_deg": -18.749854527446256,
      "longitude_deg": 107.95969791989774,
      "semi_major_axis_km": 6861.207212345832,
      "eccentricity": 0.0001157,
      "inclination_deg": 43.0032,
      "raan_deg": 112.8851,
      "arg_perigee_deg": 273.6674,
      "mean_anomaly_deg": 86.4046,
      "mean_motion_rev_day": 15.27572948
    }
  ]
}